[{"OBJECT_NAME":"STARLINK-5004","OBJECT_ID":"2022-119AP","EPOCH":"2026-03-09T22:19:47.472384","MEAN_MOTION":15.08837186,"ECCENTRICITY":0.00013472,"INCLINATION":53.2183,"RA_OF_ASC_NODE":312.8687,"ARG_OF_PERICENTER":85.7179,"MEAN_ANOMALY":274.3967,"EPHEMERIS_TYPE":0,"CLASSIFICATION_TYPE":"U","NORAD_CAT_ID":53923,"ELEMENT_SET_NO":999,"REV_AT_EPOCH":19186,"BSTAR":1.972859e-6,"MEAN_MOTION_DOT":-2.57e-6,"MEAN_MOTION_DDOT":0},{"OBJECT_NAME":"ELECTRON KICK STAGE R\/B","OBJECT_ID":"2022-127B","EPOCH":"2026-03-09T17:09:40.821984","MEAN_MOTION":14.86457617,"ECCENTRICITY":0.01108806,"INCLINATION":98.1925,"RA_OF_ASC_NODE":123.6736,"ARG_OF_PERICENTER":332.423,"MEAN_ANOMALY":27.1129,"EPHEMERIS_TYPE":0,"CLASSIFICATION_TYPE":"U","NORAD_CAT_ID":54024,"ELEMENT_SET_NO":999,"REV_AT_EPOCH":18462,"BSTAR":0.00041708846,"MEAN_MOTION_DOT":4.056e-5,"MEAN_MOTION_DDOT":0}]
